start=new Date('2023-05-02T00:00:00.000Z').valueOf();
sats=[{"ECCENTRICITY":"0.00039320","GP_ID":"231053446","CENTER_NAME":"EARTH","CLASSIFICATION_TYPE":"U","APOAPSIS":"565.733","EPOCH":"2023-05-01T17:45:30.677760","PERIAPSIS":"560.274","OBJECT_TYPE":"PAYLOAD","NORAD_CAT_ID":"53233","MEAN_ANOMALY":"128.9780","FILE":"3898518","SEMIMAJOR_AXIS":"6941.138","OBJECT_ID":"2022-084AW","MEAN_MOTION_DOT":"-0.00000263","INCLINATION":"97.6548","EPHEMERIS_TYPE":"0","RA_OF_ASC_NODE":"183.4698","PERIOD":"95.919","TLE_LINE1":"1 53233U 22084AW  23121.73993840 -.00000263  00000-0 -15822-4 0  9999","OBJECT_NAME":"STARLINK-4372","MEAN_ELEMENT_THEORY":"SGP4","SITE":"AFWTR","LAUNCH_DATE":"2022-07-22","TIME_SYSTEM":"UTC","ELEMENT_SET_NO":"999","TLE_LINE2":"2 53233  97.6548 183.4698 0003932 231.1093 128.9780 15.01262729 42840","ARG_OF_PERICENTER":"231.1093","DECAY_DATE":null,"RCS_SIZE":"LARGE","BSTAR":"-0.00001582200000","REV_AT_EPOCH":"4284","COUNTRY_CODE":"US","MEAN_MOTION_DDOT":"0.0000000000000","MEAN_MOTION":"15.01262729","REF_FRAME":"TEME"},{"EPOCH":"2023-05-01T17:43:11.813952","APOAPSIS":"566.172","MEAN_ANOMALY":"131.0079","OBJECT_TYPE":"PAYLOAD","NORAD_CAT_ID":"53234","PERIAPSIS":"559.834","CENTER_NAME":"EARTH","GP_ID":"231054196","ECCENTRICITY":"0.00045660","CLASSIFICATION_TYPE":"U","PERIOD":"95.919","RA_OF_ASC_NODE":"183.4685","TLE_LINE1":"1 53234U 22084AX  23121.73833118 -.00000383  00000-0 -25164-4 0  9994","INCLINATION":"97.6549","SEMIMAJOR_AXIS":"6941.138","FILE":"3898518","OBJECT_ID":"2022-084AX","MEAN_MOTION_DOT":"-0.00000383","EPHEMERIS_TYPE":"0","TIME_SYSTEM":"UTC","LAUNCH_DATE":"2022-07-22","SITE":"AFWTR","TLE_LINE2":"2 53234  97.6549 183.4685 0004566 229.0750 131.0079 15.01262907 43854","ELEMENT_SET_NO":"999","MEAN_ELEMENT_THEORY":"SGP4","OBJECT_NAME":"STARLINK-4368","MEAN_MOTION_DDOT":"0.0000000000000","COUNTRY_CODE":"US","REF_FRAME":"TEME","MEAN_MOTION":"15.01262907","RCS_SIZE":"LARGE","DECAY_DATE":null,"BSTAR":"-0.00002516400000","ARG_OF_PERICENTER":"229.0750","REV_AT_EPOCH":"4385"},{"DECAY_DATE":null,"RCS_SIZE":"LARGE","ARG_OF_PERICENTER":"120.0157","BSTAR":"0.00038593000000","REV_AT_EPOCH":"4385","MEAN_MOTION_DDOT":"0.0000000000000","COUNTRY_CODE":"US","MEAN_MOTION":"15.08839115","REF_FRAME":"TEME","OBJECT_NAME":"STARLINK-4056","MEAN_ELEMENT_THEORY":"SGP4","TIME_SYSTEM":"UTC","LAUNCH_DATE":"2022-07-24","SITE":"AFETR","TLE_LINE2":"2 53242  53.2156 201.3276 0001189 120.0157 240.0954 15.08839115 43851","ELEMENT_SET_NO":"999","INCLINATION":"53.2156","FILE":"3898518","OBJECT_ID":"2022-086A","SEMIMAJOR_AXIS":"6917.883","MEAN_MOTION_DOT":"0.00005859","EPHEMERIS_TYPE":"0","PERIOD":"95.438","RA_OF_ASC_NODE":"201.3276","TLE_LINE1":"1 53242U 22086A   23121.68747613  .00005859  00000-0  38593-3 0  9993","CENTER_NAME":"EARTH","ECCENTRICITY":"0.00011890","GP_ID":"231055189","CLASSIFICATION_TYPE":"U","EPOCH":"2023-05-01T16:29:57.937632","APOAPSIS":"540.571","PERIAPSIS":"538.926","OBJECT_TYPE":"PAYLOAD","MEAN_ANOMALY":"240.0954","NORAD_CAT_ID":"53242"},{"TLE_LINE1":"1 53243U 22086B   23121.55637842  .00001435  00000-0  10823-3 0  9994","RA_OF_ASC_NODE":"206.9282","PERIOD":"95.438","EPHEMERIS_TYPE":"0","FILE":"3898258","MEAN_MOTION_DOT":"0.00001435","SEMIMAJOR_AXIS":"6917.887","OBJECT_ID":"2022-086B","INCLINATION":"53.2151","PERIAPSIS":"538.965","OBJECT_TYPE":"PAYLOAD","MEAN_ANOMALY":"271.9082","NORAD_CAT_ID":"53243","APOAPSIS":"540.540","EPOCH":"2023-05-01T13:21:11.095488","CLASSIFICATION_TYPE":"U","ECCENTRICITY":"0.00011380","GP_ID":"231022387","CENTER_NAME":"EARTH","MEAN_MOTION":"15.08837740","REF_FRAME":"TEME","COUNTRY_CODE":"US","MEAN_MOTION_DDOT":"0.0000000000000","REV_AT_EPOCH":"4378","DECAY_DATE":null,"ARG_OF_PERICENTER":"88.2041","RCS_SIZE":"LARGE","BSTAR":"0.00010823000000","ELEMENT_SET_NO":"999","TLE_LINE2":"2 53243  53.2151 206.9282 0001138  88.2041 271.9082 15.08837740 43785","LAUNCH_DATE":"2022-07-24","SITE":"AFETR","TIME_SYSTEM":"UTC","OBJECT_NAME":"STARLINK-4047","MEAN_ELEMENT_THEORY":"SGP4"},{"COUNTRY_CODE":"US","MEAN_MOTION_DDOT":"0.0000000000000","MEAN_MOTION":"15.08841770","REF_FRAME":"TEME","DECAY_DATE":null,"RCS_SIZE":"LARGE","BSTAR":"0.00020433000000","ARG_OF_PERICENTER":"104.6960","REV_AT_EPOCH":"4377","LAUNCH_DATE":"2022-07-24","SITE":"AFETR","TIME_SYSTEM":"UTC","ELEMENT_SET_NO":"999","TLE_LINE2":"2 53244  53.2173 206.6817 0001085 104.6960 255.4153 15.08841770 43778","OBJECT_NAME":"STARLINK-4125","MEAN_ELEMENT_THEORY":"SGP4","RA_OF_ASC_NODE":"206.6817","PERIOD":"95.437","TLE_LINE1":"1 53244U 22086C   23121.61157727  .00002966  00000-0  20433-3 0  9999","SEMIMAJOR_AXIS":"6917.875","FILE":"3898518","OBJECT_ID":"2022-086C","MEAN_MOTION_DOT":"0.00002966","INCLINATION":"53.2173","EPHEMERIS_TYPE":"0","APOAPSIS":"540.491","EPOCH":"2023-05-01T14:40:40.276128","PERIAPSIS":"538.989","MEAN_ANOMALY":"255.4153","OBJECT_TYPE":"PAYLOAD","NORAD_CAT_ID":"53244","ECCENTRICITY":"0.00010850","GP_ID":"231053696","CENTER_NAME":"EARTH","CLASSIFICATION_TYPE":"U"},{"CLASSIFICATION_TYPE":"U","CENTER_NAME":"EARTH","ECCENTRICITY":"0.00013080","GP_ID":"231020885","PERIAPSIS":"538.844","MEAN_ANOMALY":"224.8965","OBJECT_TYPE":"PAYLOAD","NORAD_CAT_ID":"53245","EPOCH":"2023-05-01T13:15:53.000064","APOAPSIS":"540.653","EPHEMERIS_TYPE":"0","INCLINATION":"53.2148","FILE":"3898258","SEMIMAJOR_AXIS":"6917.883","OBJECT_ID":"2022-086D","MEAN_MOTION_DOT":"0.00001121","TLE_LINE1":"1 53245U 22086D   23121.55269676  .00001121  00000-0  88527-4 0  9991","PERIOD":"95.438","RA_OF_ASC_NODE":"206.9433","OBJECT_NAME":"STARLINK-4124","MEAN_ELEMENT_THEORY":"SGP4","TLE_LINE2":"2 53245  53.2148 206.9433 0001308 135.2132 224.8965 15.08839008 43780","ELEMENT_SET_NO":"999","TIME_SYSTEM":"UTC","LAUNCH_DATE":"2022-07-24","SITE":"AFETR","REV_AT_EPOCH":"4378","RCS_SIZE":"LARGE","DECAY_DATE":null,"BSTAR":"0.00008852700000","ARG_OF_PERICENTER":"135.2132","MEAN_MOTION":"15.08839008","REF_FRAME":"TEME","MEAN_MOTION_DDOT":"0.0000000000000","COUNTRY_CODE":"US"},{"PERIAPSIS":"539.259","NORAD_CAT_ID":"53246","OBJECT_TYPE":"PAYLOAD","MEAN_ANOMALY":"236.0492","APOAPSIS":"540.244","EPOCH":"2023-05-01T14:45:58.215168","CLASSIFICATION_TYPE":"U","ECCENTRICITY":"0.00007120","GP_ID":"231054689","CENTER_NAME":"EARTH","TLE_LINE1":"1 53246U 22086E   23121.61525712  .00008569  00000-0  55585-3 0  9995","RA_OF_ASC_NODE":"206.6635","PERIOD":"95.438","EPHEMERIS_TYPE":"0","FILE":"3898518","SEMIMAJOR_AXIS":"6917.887","OBJECT_ID":"2022-086E","MEAN_MOTION_DOT":"0.00008569","INCLINATION":"53.2165","ELEMENT_SET_NO":"999","TLE_LINE2":"2 53246  53.2165 206.6635 0000712 124.0567 236.0492 15.08837982 42662","LAUNCH_DATE":"2022-07-24","SITE":"AFETR","TIME_SYSTEM":"UTC","OBJECT_NAME":"STARLINK-4131","MEAN_ELEMENT_THEORY":"SGP4","MEAN_MOTION":"15.08837982","REF_FRAME":"TEME","COUNTRY_CODE":"US","MEAN_MOTION_DDOT":"0.0000000000000","REV_AT_EPOCH":"4266","DECAY_DATE":null,"ARG_OF_PERICENTER":"124.0567","RCS_SIZE":"LARGE","BSTAR":"0.00055585000000"},{"OBJECT_NAME":"STARLINK-4061","MEAN_ELEMENT_THEORY":"SGP4","LAUNCH_DATE":"2022-07-24","SITE":"AFETR","TIME_SYSTEM":"UTC","ELEMENT_SET_NO":"999","TLE_LINE2":"2 53247  53.2152 202.3447 0000959  73.0698 287.0399 15.08836927 43823","DECAY_DATE":null,"RCS_SIZE":"LARGE","ARG_OF_PERICENTER":"73.0698","BSTAR":"0.00000551760000","REV_AT_EPOCH":"4382","COUNTRY_CODE":"US","MEAN_MOTION_DDOT":"0.0000000000000","MEAN_MOTION":"15.08836927","REF_FRAME":"TEME","ECCENTRICITY":"0.00009590","GP_ID":"231021887","CENTER_NAME":"EARTH","CLASSIFICATION_TYPE":"U","APOAPSIS":"540.418","EPOCH":"2023-05-01T12:05:02.444928","PERIAPSIS":"539.091","MEAN_ANOMALY":"287.0399","OBJECT_TYPE":"PAYLOAD","NORAD_CAT_ID":"53247","FILE":"3898258","MEAN_MOTION_DOT":"-0.00000200","SEMIMAJOR_AXIS":"6917.890","OBJECT_ID":"2022-086F","INCLINATION":"53.2152","EPHEMERIS_TYPE":"0","RA_OF_ASC_NODE":"202.3447","PERIOD":"95.438","TLE_LINE1":"1 53247U 22086F   23121.50350052 -.00000200  00000-0  55176-5 0  9990"},{"PERIOD":"95.437","RA_OF_ASC_NODE":"201.4270","TLE_LINE1":"1 53248U 22086G   23121.69117145  .00006021  00000-0  39601-3 0  9994","INCLINATION":"53.2148","FILE":"3898518","OBJECT_ID":"2022-086G","SEMIMAJOR_AXIS":"6917.862","MEAN_MOTION_DOT":"0.00006021","EPHEMERIS_TYPE":"0","EPOCH":"2023-05-01T16:35:17.213280","APOAPSIS":"540.797","PERIAPSIS":"538.658","NORAD_CAT_ID":"53248","OBJECT_TYPE":"PAYLOAD","MEAN_ANOMALY":"249.1925","CENTER_NAME":"EARTH","ECCENTRICITY":"0.00015460","GP_ID":"231054197","CLASSIFICATION_TYPE":"U","MEAN_MOTION_DDOT":"0.0000000000000","COUNTRY_CODE":"US","MEAN_MOTION":"15.08845903","REF_FRAME":"TEME","RCS_SIZE":"LARGE","DECAY_DATE":null,"BSTAR":"0.00039601000000","ARG_OF_PERICENTER":"110.9233","REV_AT_EPOCH":"4385","TIME_SYSTEM":"UTC","LAUNCH_DATE":"2022-07-24","SITE":"AFETR","TLE_LINE2":"2 53248  53.2148 201.4270 0001546 110.9233 249.1925 15.08845903 43853","ELEMENT_SET_NO":"999","OBJECT_NAME":"STARLINK-4135","MEAN_ELEMENT_THEORY":"SGP4"},{"OBJECT_ID":"2022-086H","FILE":"3898258","SEMIMAJOR_AXIS":"6917.890","MEAN_MOTION_DOT":"0.00000585","INCLINATION":"53.2149","EPHEMERIS_TYPE":"0","RA_OF_ASC_NODE":"197.2008","PERIOD":"95.438","TLE_LINE1":"1 53249U 22086H   23121.49473935  .00000585  00000-0  54854-4 0  9992","ECCENTRICITY":"0.00009810","GP_ID":"231021386","CENTER_NAME":"EARTH","CLASSIFICATION_TYPE":"U","APOAPSIS":"540.433","EPOCH":"2023-05-01T11:52:25.479840","PERIAPSIS":"539.076","NORAD_CAT_ID":"53249","OBJECT_TYPE":"PAYLOAD","MEAN_ANOMALY":"271.9874","RCS_SIZE":"LARGE","DECAY_DATE":null,"BSTAR":"0.00005485400000","ARG_OF_PERICENTER":"88.1231","REV_AT_EPOCH":"4359","COUNTRY_CODE":"US","MEAN_MOTION_DDOT":"0.0000000000000","MEAN_MOTION":"15.08836947","REF_FRAME":"TEME","OBJECT_NAME":"STARLINK-4128","MEAN_ELEMENT_THEORY":"SGP4","LAUNCH_DATE":"2022-07-24","SITE":"AFETR","TIME_SYSTEM":"UTC","ELEMENT_SET_NO":"999","TLE_LINE2":"2 53249  53.2149 197.2008 0000981  88.1231 271.9874 15.08836947 43597"}];
